{"fetched_at":"2026-03-29T16:36:15Z","count":15609,"tles":[{"name":"STARLINK-3127","line1":"1 49450U 21104AU  26087.83783008  .00000955  00000+0  78099-4 0  9995","line2":"2 49450  53.2166 133.1988 0001329  88.1086 272.0058 15.08844598241920","category":"Starlink"}]}